{
  "norad_id": 66520,
  "name": "STARLINK-35952",
  "history": [
    {
      "epoch": "2026-03-28T14:27:29.463840",
      "apogee_km": 484.16499003832087,
      "perigee_km": 482.0091934286984,
      "latitude_deg": 33.592418549613704,
      "longitude_deg": 169.83273759996518,
      "semi_major_axis_km": 6861.224091733509,
      "eccentricity": 0.0001571,
      "inclination_deg": 42.9983,
      "raan_deg": 171.3258,
      "arg_perigee_deg": 263.3262,
      "mean_anomaly_deg": 96.741,
      "mean_motion_rev_day": 15.27567311
    }
  ]
}